0 COSMOS 1461
1 14064U 83044A   23202.46587906  .00006135  00000-0  43575-3 0  9990
2 14064  64.9971 221.0758 0106312 247.3219 111.6632 15.01099155 56073
0 COSMOS 1464
1 14084U 83048A   23201.65795493  .00000080  00000-0  67444-4 0  9993
2 14084  82.9450 271.5901 0031378 111.2112  42.7060 13.74537033 14171
0 OPS 3899
1 14139U 83060C   23200.83139298 -.00000030  00000-0 -37209-4 0  9995
2 14139  96.6733 135.3425 0002322  92.0311 268.1065 12.93916486198311
0 GB 1
1 14143U 83056C   23201.64934853  .00007007  00000-0  61618-3 0  9994
2 14143  63.3018 277.8512 0848524 113.0524 256.2227 13.63716347200790
0 GB 2
1 14144U 83056D   23202.33142114  .00006978  00000-0  61999-3 0  9991
2 14144  63.3027 278.1277 0847896 113.4191 255.8276 13.63569319210243
0 COSMOS 1470
1 14147U 83061A   23202.60828093  .00007467  00000-0  37829-3 0  9996
2 14147  82.4812   9.2678 0014760 153.2109 206.9889 15.16733569941063
0 HILAT
1 14154U 83063A   23202.79554972  .00000412  00000-0  13274-3 0  9999
2 14154  82.0235  66.6446 0038945 263.8548 143.7135 14.37033492 95312
0 COSMOS 1473
1 14171U 83069A   23201.59809937 -.00000017  00000-0 -48760-5 0  9998
2 14171  74.0275 344.9018 0043607  75.4446   3.1752 12.58737564840075
0 COSMOS 1474
1 14172U 83069B   23201.58817858  .00000008  00000-0  14423-3 0  9994
2 14172  74.0254  61.8350 0033142 172.8546 215.6537 12.56647806837011
0 COSMOS 1475
1 14173U 83069C   23199.01948993 -.00000028  00000-0 -74203-4 0  9991
2 14173  74.0255 141.9645 0022380 257.6425 174.1999 12.54553270833634
0 COSMOS 1476
1 14174U 83069D   23202.47309265 -.00000024  00000-0 -51382-4 0  9999
2 14174  74.0226 211.2629 0011325 333.0371 195.6700 12.52517372831099
0 COSMOS 1477
1 14175U 83069E   23200.41902108  .00000008  00000-0  15499-3 0  9995
2 14175  74.0269 289.9534 0002609 320.2449 111.7532 12.50430976827799
0 COSMOS 1478
1 14176U 83069F   23199.98142896 -.00000018  00000-0 -13407-4 0  9996
2 14176  74.0269   9.6614 0012288 320.4499 213.8528 12.48237692824532
0 COSMOS 1479
1 14177U 83069G   23202.66745293  .00000008  00000-0  16064-3 0  9995
2 14177  74.0252  83.7704 0023110  64.1141 324.2982 12.46079279821722
0 COSMOS 1480
1 14178U 83069H   23200.40456090 -.00000021  00000-0 -41955-4 0  9995
2 14178  74.0241 173.2979 0035838 155.6362 278.6520 12.43677545817936
0 GB 3
1 14180U 83056G   23201.62768106  .00007398  00000-0  58474-3 0  9998
2 14180  63.2986 277.2016 0856120 112.5935 256.7924 13.64943843212930
0 COSMOS 1486
1 14240U 83079A   23200.15704269  .00000182  00000-0  74163-4 0  9995
2 14240  74.0553 197.2307 0013482  13.6938  63.2647 14.34167380 89444
0 COSMOS 1500
1 14372U 83099A   23202.35819972  .00011146  00000-0  40225-3 0  9998
2 14372  82.5131 297.0578 0010874 240.2415 119.7743 15.28318423175737
0 COSMOS 1503
1 14401U 83103A   23202.35335263  .00000139  00000-0  60756-4 0  9995
2 14401  74.0433 251.9164 0014564 273.3683  86.5802 14.32464492 77645
0 COSMOS 1506
1 14450U 83108A   23201.85739045  .00000075  00000-0  60646-4 0  9991
2 14450  82.9325 341.8480 0044292  91.3715  62.0722 13.76355164811785
0 METEOR 2-10
1 14452U 83109A   23201.83256823  .00000202  00000-0  74655-4 0  9997
2 14452  81.1628 350.4404 0090914  47.4330 313.4476 14.26724913 66197
0 COSMOS 1508
1 14483U 83111A   23202.42302505  .00003205  00000-0  22359-3 0  9998
2 14483  82.9051   5.1721 0722586 345.0185  13.0531 13.94735336972576
0 OPS 1294 (DMSP 5D-2 F7)
1 14506U 83113A   23202.46758890  .00000360  00000-0  15978-3 0  9990
2 14506  98.3007  15.3564 0012091 124.6952 255.1766 14.28553102 64127
0 COSMOS 1510
1 14521U 83115A   23199.07702013 -.00000004  00000-0  95075-4 0  9990
2 14521  73.6191 298.0847 0027310  56.2070 356.0311 12.41177685797131
0 COSMOS 1513
1 14546U 83120A   23201.78368050  .00000069  00000-0  57134-4 0  9998
2 14546  82.9403 299.1227 0038012 340.4236 132.4551 13.74298299986598
0 COSMOS 1515
1 14551U 83122A   23201.77273296  .00009563  00000-0  36078-3 0  9993
2 14551  82.4978 126.4957 0007864 102.2164 257.9956 15.26874643907545
0 COSMOS 1522
1 14611U 84001A   23200.97392576 -.00000013  00000-0  17876-4 0  9999
2 14611  74.0084  29.5540 0020103 327.2120 105.3004 12.47040667800015
0 COSMOS 1523
1 14612U 84001B   23201.78448630 -.00000011  00000-0  31569-4 0  9996
2 14612  74.0076 329.7340 0041551  32.2797 121.3266 12.58628283816825
0 COSMOS 1524
1 14613U 84001C   23202.03717779 -.00000016  00000-0 -15284-5 0  9992
2 14613  74.0082  41.0052 0031608 119.4266 315.0645 12.56718819814091
0 COSMOS 1525
1 14614U 84001D   23201.82325904  .00000011  00000-0  16541-3 0  9992
2 14614  74.0084 107.6690 0021960 190.8236 226.2481 12.54883592811425
0 COSMOS 1526
1 14615U 84001E   23201.63178421 -.00000020  00000-0 -24108-4 0  9993
2 14615  74.0065 174.5072 0012787 268.8664 208.0539 12.53028458808722
0 COSMOS 1527
1 14616U 84001F   23201.55844494 -.00000000  00000-0  10202-3 0  9991
2 14616  74.0062 244.9077 0002377 299.9792 214.3786 12.51078030394743
0 COSMOS 1528
1 14617U 84001G   23201.80842779  .00000000  00000-0  10886-3 0  9991
2 14617  74.0104 318.3297 0010295 223.1723 211.1114 12.49012208802962
0 COSMOS 1529
1 14618U 84001H   23201.12650559  .00000010  00000-0  18235-3 0  9997
2 14618  74.0084 107.8433 0031369  44.3744  24.5805 12.44843089623502
0 COSMOS 1531
1 14624U 84003A   23201.53983747  .00000053  00000-0  41489-4 0  9994
2 14624  82.9306 202.3327 0019746 176.0056 299.7528 13.72257480977305
0 COSMOS 1535
1 14679U 84010A   23202.65433362  .00000016  00000-0  29003-6 0  9998
2 14679  82.9560 219.9037 0043285  60.2302  79.5074 13.75254853949248
0 COSMOS 1536
1 14699U 84013A   23202.50810079  .00004552  00000-0  28325-3 0  9993
2 14699  82.5448 332.1761 0018676  26.7804 333.4385 15.09238481148003
0 JD 1
1 14728U 84012C   23202.01406159  .00010423  00000-0  92080-3 0  9994
2 14728  63.3011  46.5644 0865825 109.8120 259.8300 13.59804633198403
0 JD 2
1 14729U 84012D   23201.74431027  .00009921  00000-0  86582-3 0  9997
2 14729  63.3014  45.8438 0864411 109.1668 260.4904 13.60445879198425
0 COSMOS 1538
1 14759U 84019A   23201.77065035  .00000168  00000-0  69353-4 0  9994
2 14759  74.0398  63.5925 0020104 113.2320 247.0951 14.33852478 60872
0 LANDSAT 5
1 14780U 84021A   23202.20137230  .00002983  00000-0  25873-3 0  9992
2 14780  98.1644  61.7153 0085901  55.3471 305.5808 14.95091417107722
0 OSCAR 11 (UoSAT 2)
1 14781U 84021B   23201.88409641  .00002002  00000-0  24051-3 0  9993
2 14781  97.6591 177.5143 0009820  91.1467 269.0873 14.85020593120145
0 JD 3
1 14795U 84012F   23201.91786612  .00016136  00000-0  10506-2 0  9990
2 14795  63.2958  20.9862 0871505 106.5414 263.3100 13.66294371208125
0 COSMOS 1544
1 14819U 84027A   23202.20928072  .00022583  00000-0  47916-3 0  9993
2 14819  82.4759 298.1060 0010379  93.2000 267.0435 15.44853470155920
0 COSMOS 1550
1 14965U 84043A   23201.67402189  .00000076  00000-0  65612-4 0  9996
2 14965  82.9729 281.1524 0027096  95.4080  58.4000 13.72872484964267
0 COSMOS 1553
1 14973U 84046A   23201.96333944  .00000084  00000-0  71365-4 0  9993
2 14973  82.9383 320.5066 0032138   1.1016 137.0023 13.75437316965957
0 COSMOS 1559
1 14998U 84052A   23200.98331375 -.00000016  00000-0 -30570-6 0  9996
2 14998  74.0122 141.7222 0026160 259.3024 170.7658 12.43955349777570
0 COSMOS 1560
1 14999U 84052B   23202.12374522 -.00000000  00000-0  10643-3 0  9994
2 14999  74.0119  64.6713 0013592 163.9549 316.0188 12.46092673780765
0 COSMOS 1561
1 15000U 84052C   23201.86602887 -.00000017  00000-0 -93371-5 0  9996
2 15000  74.0140 358.8391 0014991  40.9519 116.6783 12.47965770783405
0 COSMOS 1562
1 15001U 84052D   23200.68570685  .00000013  00000-0  19069-3 0  9990
2 15001  74.0135 290.8445 0015656 279.4163 192.9013 12.49939341786074
0 COSMOS 1563
1 15002U 84052E   23201.03880182 -.00000009  00000-0  47611-4 0  9998
2 15002  74.0093 223.4969 0024608 193.9535 193.1864 12.51813488521341
0 COSMOS 1564
1 15003U 84052F   23201.06153832 -.00000020  00000-0 -22446-4 0  9990
2 15003  74.0114 161.5904 0032349 114.2399 319.2170 12.53557671791286
0 COSMOS 1565
1 15004U 84052G   23202.41516698  .00000011  00000-0  16455-3 0  9994
2 15004  74.0123  92.5372 0043302  34.4126  11.6370 12.55435134794134
0 COSMOS 1566
1 15005U 84052H   23201.97168503 -.00000021  00000-0 -26633-4 0  9996
2 15005  74.0130  24.3571 0051739 306.6149 222.3797 12.57355125796813
0 COSMOS 1570
1 15031U 84056A   23202.06301019  .00000179  00000-0  76302-4 0  9991
2 15031  74.0671  65.2230 0012097  35.2253 117.0330 14.32025638 42638
0 COSMOS 1574
1 15055U 84062A   23201.93041816  .00000073  00000-0  60523-4 0  9996
2 15055  82.9585 142.8045 0028371 130.7612 338.9316 13.74396063959839
0 COSMOS 1577
1 15077U 84067A   23202.18138925  .00000067  00000-0  53075-4 0  9998
2 15077  82.9565 272.2277 0037145  83.5837 305.4719 13.75508297707718
0 COSMOS 1579
1 15085U 84069A   23202.72993149 -.00000044  00000-0  38265-4 0  9996
2 15085  65.0524 317.6123 0040215  17.5961 342.6483 13.86107973978905
0 METEOR 2-11
1 15099U 84072A   23201.38428656  .00000032  00000-0  15002-4 0  9992
2 15099  82.5313 166.7079 0012658 190.7499 169.3393 13.85138081973196
0 COSMOS 1589
1 15171U 84084A   23202.15026442  .00000038  00000-0  20098-3 0  9995
2 15171  82.5965  86.7491 0005724 179.9174 348.7695 12.42228178766236
0 COSMOS 1598
1 15292U 84100A   23202.61356306  .00000045  00000-0  32305-4 0  9997
2 15292  82.9436 236.1266 0033888 100.8999  55.2558 13.73049235946595
0 COSMOS 1579 FUEL CORE
1 15330U 84069D   23201.68065851 -.00000061  00000-0  23045-4 0  9992
2 15330  65.0553  80.8799 0045167 311.6944  68.6716 13.89879104984397
0 COSMOS 1602
1 15331U 84105A   23201.78406517  .00008172  00000-0  36492-3 0  9992
2 15331  82.5366 300.5406 0013748 142.9985 217.2201 15.21123942118593
0 COSMOS 1603
1 15333U 84106A   23201.17980485 -.00000060  00000-0 -68442-5 0  9991
2 15333  71.0263 114.9967 0017709  57.5560 302.7272 14.14234727  2678
0 COSMOS 1605
1 15359U 84109A   23202.49815546  .00000053  00000-0  38692-4 0  9996
2 15359  82.9379 219.3229 0047369  46.7786 117.3251 13.75261585946156
